[{"OBJECT_NAME":"STARLINK-35165","OBJECT_ID":"2025-216S","EPOCH":"2026-03-09T22:29:10.116096","MEAN_MOTION":15.30216106,"ECCENTRICITY":0.00019204,"INCLINATION":53.16,"RA_OF_ASC_NODE":331.5839,"ARG_OF_PERICENTER":142.6128,"MEAN_ANOMALY":217.5007,"EPHEMERIS_TYPE":0,"CLASSIFICATION_TYPE":"U","NORAD_CAT_ID":65750,"ELEMENT_SET_NO":999,"REV_AT_EPOCH":2655,"BSTAR":0.0008730771,"MEAN_MOTION_DOT":0.00025601,"MEAN_MOTION_DDOT":0},{"OBJECT_NAME":"CZ-2C DEB","OBJECT_ID":"2018-056F","EPOCH":"2026-03-09T10:57:26.102304","MEAN_MOTION":15.27739248,"ECCENTRICITY":0.00119172,"INCLINATION":98.1188,"RA_OF_ASC_NODE":250.032,"ARG_OF_PERICENTER":4.6998,"MEAN_ANOMALY":355.4349,"EPHEMERIS_TYPE":0,"CLASSIFICATION_TYPE":"U","NORAD_CAT_ID":43534,"ELEMENT_SET_NO":999,"REV_AT_EPOCH":41855,"BSTAR":0.00085537155,"MEAN_MOTION_DOT":0.00023193,"MEAN_MOTION_DDOT":0}]
